{"type": "FeatureCollection", "features": [{"type": "Feature", "properties": {"norad_id": 36828, "name": "BEIDOU-2 IGSO-1 (C06)", "group": "beidou", "lat": -12.082310496908299, "lon": -6.460582956102237, "alt_km": 35585.083773120175, "timestamp": "2025-12-09T11:33:55.064626+00:00", "meta": {"OBJECT_NAME": "BEIDOU-2 IGSO-1 (C06)", "OBJECT_ID": "2010-036A", "EPOCH": "2025-12-08T22:40:34.354848", "MEAN_MOTION": 1.00277328, "ECCENTRICITY": 0.0051252, "INCLINATION": 54.2862, "RA_OF_ASC_NODE": 164.6817, "ARG_OF_PERICENTER": 215.9151, "MEAN_ANOMALY": 145.3362, "EPHEMERIS_TYPE": 0, "CLASSIFICATION_TYPE": "U", "NORAD_CAT_ID": 36828, "ELEMENT_SET_NO": 999, "REV_AT_EPOCH": 5619, "BSTAR": 0, "MEAN_MOTION_DOT": -6.9e-07, "MEAN_MOTION_DDOT": 0}, "tle": {"line1": "1 36828U 10036A   25342.94484207 -.00000069  00000+0  00000+0 0  9995", "line2": "2 36828  54.2862 164.6817 0051252 215.9151 145.3362  1.00277328 56193"}}, "geometry": {"type": "Point", "coordinates": [-6.460582956102237, -12.082310496908299]}}, {"type": "Feature", "properties": {"norad_id": 37210, "name": "BEIDOU-2 G4 (C04)", "group": "beidou", "lat": -0.9554647714147372, "lon": 52.1065494835316, "alt_km": 35827.59756515353, "timestamp": "2025-12-09T11:33:55.064649+00:00", "meta": {"OBJECT_NAME": "BEIDOU-2 G4 (C04)", "OBJECT_ID": "2010-057A", "EPOCH": "2025-12-09T04:03:41.248224", "MEAN_MOTION": 1.002712, "ECCENTRICITY": 0.0010979, "INCLINATION": 3.1754, "RA_OF_ASC_NODE": 69.9401, "ARG_OF_PERICENTER": 189.6703, "MEAN_ANOMALY": 39.5481, "EPHEMERIS_TYPE": 0, "CLASSIFICATION_TYPE": "U", "NORAD_CAT_ID": 37210, "ELEMENT_SET_NO": 999, "REV_AT_EPOCH": 5538, "BSTAR": 0, "MEAN_MOTION_DOT": -1.1e-06, "MEAN_MOTION_DDOT": 0}, "tle": {"line1": "1 37210U 10057A   25343.16922741 -.00000110  00000+0  00000+0 0  9996", "line2": "2 37210   3.1754  69.9401 0010979 189.6703  39.5481  1.00271200 55388"}}, "geometry": {"type": "Point", "coordinates": [52.1065494835316, -0.9554647714147372]}}, {"type": "Feature", "properties": {"norad_id": 37256, "name": "BEIDOU-2 IGSO-2 (C07)", "group": "beidou", "lat": 47.67121482943138, "lon": -3.553466160710873, "alt_km": 35912.72715281201, "timestamp": "2025-12-09T11:33:55.064664+00:00", "meta": {"OBJECT_NAME": "BEIDOU-2 IGSO-2 (C07)", "OBJECT_ID": "2010-068A", "EPOCH": "2025-12-03T17:22:36.027840", "MEAN_MOTION": 1.0028872, "ECCENTRICITY": 0.00492449, "INCLINATION": 47.9042, "RA_OF_ASC_NODE": 274.2614, "ARG_OF_PERICENTER": 216.1411, "MEAN_ANOMALY": 310.24, "EPHEMERIS_TYPE": 0, "CLASSIFICATION_TYPE": "U", "NORAD_CAT_ID": 37256, "ELEMENT_SET_NO": 999, "REV_AT_EPOCH": 5483, "BSTAR": 0, "MEAN_MOTION_DOT": -2.25e-06, "MEAN_MOTION_DDOT": 0}, "tle": {"line1": "1 37256U 10068A   25337.72402810 -.00000225  00000+0  00000+0 0  9990", "line2": "2 37256  47.9042 274.2614 0049244 216.1411 310.2400  1.00288720 54834"}}, "geometry": {"type": "Point", "coordinates": [-3.553466160710873, 47.67121482943138]}}, {"type": "Feature", "properties": {"norad_id": 37384, "name": "BEIDOU-2 IGSO-3 (C08)", "group": "beidou", "lat": -36.39249622862779, "lon": 19.066153476860112, "alt_km": 35888.03072564438, "timestamp": "2025-12-09T11:33:55.064677+00:00", "meta": {"OBJECT_NAME": "BEIDOU-2 IGSO-3 (C08)", "OBJECT_ID": "2011-013A", "EPOCH": "2025-12-07T14:00:04.361184", "MEAN_MOTION": 1.00271435, "ECCENTRICITY": 0.0035334, "INCLINATION": 62.1366, "RA_OF_ASC_NODE": 41.9657, "ARG_OF_PERICENTER": 187.0632, "MEAN_ANOMALY": 165.2408, "EPHEMERIS_TYPE": 0, "CLASSIFICATION_TYPE": "U", "NORAD_CAT_ID": 37384, "ELEMENT_SET_NO": 999, "REV_AT_EPOCH": 5373, "BSTAR": 0, "MEAN_MOTION_DOT": -1.91e-06, "MEAN_MOTION_DDOT": 0}, "tle": {"line1": "1 37384U 11013A   25341.58338381 -.00000191  00000+0  00000+0 0  9995", "line2": "2 37384  62.1366  41.9657 0035334 187.0632 165.2408  1.00271435 53735"}}, "geometry": {"type": "Point", "coordinates": [19.066153476860112, -36.39249622862779]}}, {"type": "Feature", "properties": {"norad_id": 37763, "name": "BEIDOU-2 IGSO-4 (C09)", "group": "beidou", "lat": 2.001363072821248, "lon": -14.055598311790998, "alt_km": 35397.0676758477, "timestamp": "2025-12-09T11:33:55.064689+00:00", "meta": {"OBJECT_NAME": "BEIDOU-2 IGSO-4 (C09)", "OBJECT_ID": "2011-038A", "EPOCH": "2025-12-01T12:32:09.960864", "MEAN_MOTION": 1.00284084, "ECCENTRICITY": 0.01488084, "INCLINATION": 54.5806, "RA_OF_ASC_NODE": 167.4476, "ARG_OF_PERICENTER": 230.2017, "MEAN_ANOMALY": 315.0405, "EPHEMERIS_TYPE": 0, "CLASSIFICATION_TYPE": "U", "NORAD_CAT_ID": 37763, "ELEMENT_SET_NO": 999, "REV_AT_EPOCH": 5266, "BSTAR": 0, "MEAN_MOTION_DOT": 1.01e-06, "MEAN_MOTION_DDOT": 0}, "tle": {"line1": "1 37763U 11038A   25335.52233751  .00000101  00000+0  00000+0 0  9995", "line2": "2 37763  54.5806 167.4476 0148808 230.2017 315.0405  1.00284084 52669"}}, "geometry": {"type": "Point", "coordinates": [-14.055598311790998, 2.001363072821248]}}, {"type": "Feature", "properties": {"norad_id": 37948, "name": "BEIDOU-2 IGSO-5 (C10)", "group": "beidou", "lat": 44.43187385847169, "lon": -24.391832354368738, "alt_km": 36184.10748838704, "timestamp": "2025-12-09T11:33:55.064703+00:00", "meta": {"OBJECT_NAME": "BEIDOU-2 IGSO-5 (C10)", "OBJECT_ID": "2011-073A", "EPOCH": "2025-12-07T19:12:14.882400", "MEAN_MOTION": 1.00291658, "ECCENTRICITY": 0.01104068, "INCLINATION": 48.0298, "RA_OF_ASC_NODE": 273.9181, "ARG_OF_PERICENTER": 222.1784, "MEAN_ANOMALY": 321.4594, "EPHEMERIS_TYPE": 0, "CLASSIFICATION_TYPE": "U", "NORAD_CAT_ID": 37948, "ELEMENT_SET_NO": 999, "REV_AT_EPOCH": 5121, "BSTAR": 0, "MEAN_MOTION_DOT": -1.91e-06, "MEAN_MOTION_DDOT": 0}, "tle": {"line1": "1 37948U 11073A   25341.80017225 -.00000191  00000+0  00000+0 0  9993", "line2": "2 37948  48.0298 273.9181 0110406 222.1784 321.4594  1.00291658 51212"}}, "geometry": {"type": "Point", "coordinates": [-24.391832354368738, 44.43187385847169]}}, {"type": "Feature", "properties": {"norad_id": 38091, "name": "BEIDOU-2 G5 (C05)", "group": "beidou", "lat": -2.6983599295049463, "lon": -49.30124702820753, "alt_km": 35734.497176852696, "timestamp": "2025-12-09T11:33:55.064715+00:00", "meta": {"OBJECT_NAME": "BEIDOU-2 G5 (C05)", "OBJECT_ID": "2012-008A", "EPOCH": "2025-12-09T03:34:44.022432", "MEAN_MOTION": 1.00274149, "ECCENTRICITY": 0.001252, "INCLINATION": 3.1, "RA_OF_ASC_NODE": 70.7096, "ARG_OF_PERICENTER": 226.0989, "MEAN_ANOMALY": 253.7636, "EPHEMERIS_TYPE": 0, "CLASSIFICATION_TYPE": "U", "NORAD_CAT_ID": 38091, "ELEMENT_SET_NO": 999, "REV_AT_EPOCH": 5046, "BSTAR": 0, "MEAN_MOTION_DOT": 5.8e-07, "MEAN_MOTION_DDOT": 0}, "tle": {"line1": "1 38091U 12008A   25343.14912063  .00000058  00000+0  00000+0 0  9996", "line2": "2 38091   3.1000  70.7096 0012520 226.0989 253.7636  1.00274149 50467"}}, "geometry": {"type": "Point", "coordinates": [-49.30124702820753, -2.6983599295049463]}}, {"type": "Feature", "properties": {"norad_id": 38250, "name": "BEIDOU-2 M3 (C11)", "group": "beidou", "lat": -51.97871068428887, "lon": -168.84393670524187, "alt_km": 21470.33528854497, "timestamp": "2025-12-09T11:33:55.064727+00:00", "meta": {"OBJECT_NAME": "BEIDOU-2 M3 (C11)", "OBJECT_ID": "2012-018A", "EPOCH": "2025-12-09T02:31:53.120352", "MEAN_MOTION": 1.86229518, "ECCENTRICITY": 0.0024485, "INCLINATION": 55.923, "RA_OF_ASC_NODE": 311.2799, "ARG_OF_PERICENTER": 273.6556, "MEAN_ANOMALY": 86.0527, "EPHEMERIS_TYPE": 0, "CLASSIFICATION_TYPE": "U", "NORAD_CAT_ID": 38250, "ELEMENT_SET_NO": 999, "REV_AT_EPOCH": 9240, "BSTAR": 0, "MEAN_MOTION_DOT": -7.5e-07, "MEAN_MOTION_DDOT": 0}, "tle": {"line1": "1 38250U 12018A   25343.10547593 -.00000075  00000+0  00000+0 0  9992", "line2": "2 38250  55.9230 311.2799 0024485 273.6556  86.0527  1.86229518 92408"}}, "geometry": {"type": "Point", "coordinates": [-168.84393670524187, -51.97871068428887]}}, {"type": "Feature", "properties": {"norad_id": 38251, "name": "BEIDOU-2 M4 (C12)", "group": "beidou", "lat": -47.02911987271599, "lon": -96.31335398170718, "alt_km": 21492.72245426175, "timestamp": "2025-12-09T11:33:55.064738+00:00", "meta": {"OBJECT_NAME": "BEIDOU-2 M4 (C12)", "OBJECT_ID": "2012-018B", "EPOCH": "2025-12-09T00:54:01.935360", "MEAN_MOTION": 1.86229265, "ECCENTRICITY": 0.0015661, "INCLINATION": 55.8248, "RA_OF_ASC_NODE": 310.5114, "ARG_OF_PERICENTER": 276.7071, "MEAN_ANOMALY": 83.1029, "EPHEMERIS_TYPE": 0, "CLASSIFICATION_TYPE": "U", "NORAD_CAT_ID": 38251, "ELEMENT_SET_NO": 999, "REV_AT_EPOCH": 9240, "BSTAR": 0, "MEAN_MOTION_DOT": -7.4e-07, "MEAN_MOTION_DDOT": 0}, "tle": {"line1": "1 38251U 12018B   25343.03752240 -.00000074  00000+0  00000+0 0  9991", "line2": "2 38251  55.8248 310.5114 0015661 276.7071  83.1029  1.86229265 92406"}}, "geometry": {"type": "Point", "coordinates": [-96.31335398170718, -47.02911987271599]}}, {"type": "Feature", "properties": {"norad_id": 38775, "name": "BEIDOU-2 M6 (C14)", "group": "beidou", "lat": 38.376734956244604, "lon": -142.56652440946397, "alt_km": 21549.072304392106, "timestamp": "2025-12-09T11:33:55.064749+00:00", "meta": {"OBJECT_NAME": "BEIDOU-2 M6 (C14)", "OBJECT_ID": "2012-050B", "EPOCH": "2025-12-08T05:04:33.479040", "MEAN_MOTION": 1.86230723, "ECCENTRICITY": 0.00110356, "INCLINATION": 56.3747, "RA_OF_ASC_NODE": 69.2178, "ARG_OF_PERICENTER": 345.3738, "MEAN_ANOMALY": 14.6151, "EPHEMERIS_TYPE": 0, "CLASSIFICATION_TYPE": "U", "NORAD_CAT_ID": 38775, "ELEMENT_SET_NO": 999, "REV_AT_EPOCH": 8975, "BSTAR": 0, "MEAN_MOTION_DOT": -4.4e-07, "MEAN_MOTION_DDOT": 0}, "tle": {"line1": "1 38775U 12050B   25342.21149860 -.00000044  00000+0  00000+0 0  9992", "line2": "2 38775  56.3747  69.2178 0011035 345.3738  14.6151  1.86230723 89759"}}, "geometry": {"type": "Point", "coordinates": [-142.56652440946397, 38.376734956244604]}}]}